     2              NAVIGATION DATA                         RINEX VERSION / TYPE
CCRINEXN V1.6.0 UX  CDDIS               23-JUL-23 12:18     PGM / RUN BY / DATE 
IGS BROADCAST EPHEMERIS FILE                                COMMENT             
    0.1490D-07  0.2235D-07 -0.5960D-07 -0.1192D-06          ION ALPHA           
    0.1147D+06  0.1475D+06 -0.6554D+05 -0.3277D+06          ION BETA            
    0.186264514923D-08 0.355271367880D-14   233472     2272 DELTA-UTC: A0,A1,T,W
    18                                                      LEAP SECONDS        
                                                            END OF HEADER       
16 23  7 23 12  0  0.0-0.477409921587D-03 0.454747350886D-11 0.000000000000D+00
    0.107000000000D+03 0.232187500000D+02 0.477734185261D-08-0.234734808998D+01
    0.806525349617D-06 0.133006584365D-01 0.524893403053D-05 0.515362664223D+04
    0.432000000000D+05 0.154599547386D-06-0.755196363017D+00-0.162050127983D-06
    0.964462752213D+00 0.277968750000D+03 0.789987110660D+00-0.808319384033D-08
    0.236081262304D-09 0.100000000000D+01 0.227200000000D+04 0.000000000000D+00
    0.280000000000D+01 0.000000000000D+00-0.102445483208D-07 0.107000000000D+03
    0.360180000000D+05 0.400000000000D+01 0.000000000000D+00 0.000000000000D+00
17 23  7 23 12  0  0.0 0.721514690667D-03 0.682121026330D-12 0.000000000000D+00
    0.890000000000D+02-0.211875000000D+02 0.433839499728D-08 0.293333035431D+01
   -0.998377799988D-06 0.135970587144D-01 0.802055001259D-05 0.515355138969D+04
    0.432000000000D+05 0.294297933578D-06 0.265522921490D+00-0.186264514923D-07
    0.973759094826D+00 0.228093750000D+03-0.140767671557D+01-0.776532345689D-08
   -0.321441960777D-09 0.100000000000D+01 0.227200000000D+04 0.000000000000D+00
    0.200000000000D+01 0.000000000000D+00-0.111758708954D-07 0.890000000000D+02
    0.360790000000D+05 0.400000000000D+01 0.000000000000D+00 0.000000000000D+00
19 23  7 23 12  0  0.0 0.347738154232D-03 0.511590769747D-11 0.000000000000D+00
    0.890000000000D+02-0.174062500000D+02 0.438518266046D-08-0.118924893210D+01
   -0.949949026108D-06 0.949542201124D-02 0.883080065250D-05 0.515363537788D+04
    0.432000000000D+05-0.106170773506D-06 0.309996138732D+00-0.167638063431D-06
    0.972834415030D+00 0.218343750000D+03 0.236351334353D+01-0.808105089392D-08
   -0.193222334200D-09 0.100000000000D+01 0.227200000000D+04 0.000000000000D+00
    0.200000000000D+01 0.000000000000D+00-0.153668224812D-07 0.890000000000D+02
    0.360810000000D+05 0.400000000000D+01 0.000000000000D+00 0.000000000000D+00
20 23  7 23 12  0  0.0 0.421144533902D-03-0.204636307899D-11 0.000000000000D+00
    0.620000000000D+02 0.147187500000D+02 0.492591947003D-08 0.165800003086D+01
    0.886619091034D-06 0.403984333388D-02 0.445358455181D-05 0.515358636856D+04
    0.432000000000D+05-0.447034835815D-07 0.212880794562D+01 0.931322574615D-07
    0.949260746829D+00 0.290531250000D+03-0.287521120107D+01-0.844820904467D-08
   -0.242867259253D-10 0.100000000000D+01 0.227200000000D+04 0.000000000000D+00
    0.200000000000D+01 0.000000000000D+00-0.838190317154D-08 0.620000000000D+02
    0.407220000000D+05 0.400000000000D+01 0.000000000000D+00 0.000000000000D+00
21 23  7 23 12  0  0.0 0.151799991727D-03-0.454747350886D-12 0.000000000000D+00
    0.720000000000D+02 0.365937500000D+02 0.432660879205D-08 0.296943794620D+01
    0.211969017983D-05 0.246955711627D-01 0.972114503384D-05 0.515360470963D+04
    0.432000000000D+05-0.391155481338D-07 0.116388050919D+01 0.506639480591D-06
    0.961718831381D+00 0.187781250000D+03-0.731308982275D+00-0.768567728217D-08
    0.471448209139D-10 0.100000000000D+01 0.227200000000D+04 0.000000000000D+00
    0.282842707634D+01 0.000000000000D+00-0.102445483208D-07 0.720000000000D+02
    0.360820000000D+05 0.400000000000D+01 0.000000000000D+00 0.000000000000D+00
22 23  7 23 12  0  0.0 0.516831874847D-03 0.534328137292D-11 0.000000000000D+00
    0.190000000000D+02-0.735312500000D+02 0.415053002909D-08 0.283030305828D+01
   -0.368803739548D-05 0.143813948380D-01 0.868737697601D-05 0.515365947533D+04
    0.432000000000D+05 0.143423676491D-06-0.285471484542D+01-0.391155481338D-07
    0.963256315858D+00 0.209000000000D+03-0.179748968811D+01-0.765317592835D-08
   -0.213223167315D-09 0.100000000000D+01 0.227200000000D+04 0.000000000000D+00
    0.200000000000D+01 0.630000000000D+02-0.838190317154D-08 0.190000000000D+02
    0.360180000000D+05 0.400000000000D+01 0.000000000000D+00 0.000000000000D+00
23 23  7 23 12  0  0.0 0.464408658445D-04 0.432009983342D-11 0.000000000000D+00
    0.710000000000D+02-0.546875000000D+01 0.446982904346D-08-0.514847714731D-01
   -0.545755028725D-06 0.339642271865D-02 0.421889126301D-05 0.515366454887D+04
    0.432000000000D+05 0.856816768646D-07 0.226946763891D+01 0.745058059692D-08
    0.974660963341D+00 0.307093750000D+03-0.310635185383D+01-0.826070123422D-08
   -0.800033324599D-10 0.100000000000D+01 0.227200000000D+04 0.000000000000D+00
    0.200000000000D+01 0.000000000000D+00-0.838190317154D-08 0.839000000000D+03
    0.360180000000D+05 0.400000000000D+01 0.000000000000D+00 0.000000000000D+00
24 23  7 23 12  0  0.0-0.266944523901D-03-0.120508047985D-10 0.000000000000D+00
    0.810000000000D+02 0.198437500000D+02 0.500556564476D-08 0.112709024072D+01
    0.981613993645D-06 0.140983144520D-01 0.100731849670D-04 0.515364724541D+04
    0.432000000000D+05-0.188127160072D-06-0.198032764151D+01 0.614672899246D-07
    0.933720621578D+00 0.172531250000D+03 0.903363788453D+00-0.842392231875D-08
    0.112861844006D-09 0.100000000000D+01 0.227200000000D+04 0.000000000000D+00
    0.200000000000D+01 0.000000000000D+00 0.279396772385D-08 0.810000000000D+02
    0.360490000000D+05 0.400000000000D+01 0.000000000000D+00 0.000000000000D+00
25 23  7 23 12  0  0.0 0.457845162600D-03 0.227373675443D-11 0.000000000000D+00
    0.130000000000D+02 0.264375000000D+02 0.515700052406D-08-0.750005663421D+00
    0.167079269886D-05 0.110599418404D-01 0.531040132046D-05 0.515369984817D+04
    0.432000000000D+05 0.242143869400D-07-0.856376139801D+00 0.186264514923D-06
    0.952467937244D+00 0.277843750000D+03 0.105122435219D+01-0.855035615665D-08
    0.157506560781D-09 0.100000000000D+01 0.227200000000D+04 0.000000000000D+00
    0.200000000000D+01 0.000000000000D+00 0.558793500000D-08 0.130000000000D+02
    0.390300000000D+05 0.400000000000D+01 0.000000000000D+00 0.000000000000D+00
26 23  7 23 12  0  0.0 0.235558021814D-03-0.125055521494D-11 0.000000000000D+00
    0.440000000000D+02 0.343437500000D+02 0.546379901773D-08-0.145386206776D+01
    0.159256160259D-05 0.799311196897D-02 0.497698783875D-05 0.515371782494D+04
    0.432000000000D+05 0.108033418655D-06-0.913116861405D+00-0.150874257088D-06
    0.933209052291D+00 0.262843750000D+03 0.461917425126D+00-0.854571310611D-08
    0.274654297597D-09 0.100000000000D+01 0.227200000000D+04 0.000000000000D+00
    0.200000000000D+01 0.000000000000D+00 0.698491930962D-08 0.440000000000D+02
    0.360180000000D+05 0.400000000000D+01 0.000000000000D+00 0.000000000000D+00
27 23  7 23 12  0  0.0-0.863149762154D-05-0.716227077646D-11 0.000000000000D+00
    0.810000000000D+02-0.220625000000D+02 0.448590114150D-08 0.302914153919D+01
   -0.125356018543D-05 0.115544305882D-01 0.818260014057D-05 0.515366815186D+04
    0.432000000000D+05-0.614672899246D-07 0.199456613540D+00-0.169500708580D-06
    0.967060603602D+00 0.225000000000D+03 0.743596180440D+00-0.784068373881D-08
   -0.337871216549D-09 0.100000000000D+01 0.227200000000D+04 0.000000000000D+00
    0.280000000000D+01 0.000000000000D+00 0.186264514923D-08 0.810000000000D+02
    0.360180000000D+05 0.400000000000D+01 0.000000000000D+00 0.000000000000D+00
28 23  7 23 12  0  0.0 0.812998041511D-04-0.193267624127D-11 0.000000000000D+00
    0.870000000000D+02 0.181875000000D+02 0.426053461123D-08-0.130635835509D+01
    0.108592212200D-05 0.628676032648D-03 0.106543302536D-04 0.515371854973D+04
    0.432000000000D+05 0.223517417908D-07-0.192531435698D+01 0.745058059692D-08
    0.961233005064D+00 0.172375000000D+03 0.164220501700D+01-0.790532928870D-08
    0.330728061866D-09 0.100000000000D+01 0.227200000000D+04 0.000000000000D+00
    0.200000000000D+01 0.000000000000D+00-0.977888703346D-08 0.343000000000D+03
    0.370980000000D+05 0.400000000000D+01 0.000000000000D+00 0.000000000000D+00
29 23  7 23 12  0  0.0-0.606211367995D-03-0.909494701773D-12 0.000000000000D+00
    0.290000000000D+02-0.856250000000D+01 0.435982446133D-08 0.297877096709D+01
   -0.372529029846D-06 0.263727596030D-02 0.863522291183D-05 0.515373795891D+04
    0.432000000000D+05-0.391155481338D-07 0.279734423079D+00 0.139698386192D-06
    0.976038384099D+00 0.222281250000D+03 0.248559026139D+01-0.790318634229D-08
   -0.232152527227D-09 0.100000000000D+01 0.227200000000D+04 0.000000000000D+00
    0.200000000000D+01 0.000000000000D+00-0.102445500000D-07 0.290000000000D+02
    0.421200000000D+05 0.400000000000D+01 0.000000000000D+00 0.000000000000D+00
30 23  7 23 12  0  0.0-0.502164009958D-03 0.284217094304D-11 0.000000000000D+00
    0.300000000000D+02 0.165625000000D+02 0.494842040729D-08 0.632018792405D-01
    0.983476638794D-06 0.658220367040D-02 0.962615013123D-05 0.515379140854D+04
    0.432000000000D+05 0.931322574615D-07-0.188339712680D+01 0.139698386192D-06
    0.935192450291D+00 0.181968750000D+03-0.254728621862D+01-0.828320217148D-08
    0.345014371233D-09 0.100000000000D+01 0.227200000000D+04 0.000000000000D+00
    0.200000000000D+01 0.000000000000D+00 0.372529029846D-08 0.300000000000D+02
    0.360830000000D+05 0.400000000000D+01 0.000000000000D+00 0.000000000000D+00
